SL-14 R/B               
1 21423U 91042B   26027.36392118  .00000641  00000+0  78056-4 0  9998
2 21423  82.4910 258.9439 0017625  21.7696 338.4263 14.81789744846954
ERS-1                   
1 21574U 91050A   26027.47691215  .00000630  00000+0  21624-3 0  9992
2 21574  98.7898  44.6756 0031376 326.2226  33.6961 14.39412187809808
ARIANE 40 R/B           
1 21610U 91050F   26027.14039104  .00000558  00000+0  17953-3 0  9999
2 21610  98.2098  80.9188 0003062 177.8300 182.2905 14.42859996813005
INTERCOSMOS 25          
1 21819U 91086A   26027.29310387  .00002151  00000+0  42403-3 0  9999
2 21819  82.6091 335.0242 1486237 206.1378 145.6714 12.11886671491672
SL-8 R/B                
1 21876U 92008B   26027.28438256  .00000090  00000+0  77688-4 0  9996
2 21876  82.9283 298.5770 0033367 249.8779 227.1003 13.75968534703729
SL-8 R/B                
1 21938U 92020B   26027.52239844  .00000201  00000+0  19212-3 0  9990
2 21938  82.9310 184.3193 0029961  54.3870  10.0651 13.75542334695472
USA 81                  
1 21949U 92023A   26027.44251849  .00000386  00000+0  13575-3 0  9995
2 21949  85.0115 155.2222 0002246 112.7449 247.3981 14.32350803 88883
COSMOS 2219             
1 22219U 92076A   26027.49264050 -.00000203  00000+0 -81895-4 0  9998
2 22219  71.0608 104.1944 0020772 264.2500  95.6254 14.14080268712555
SL-16 R/B               
1 22220U 92076B   26027.12319654 -.00000056  00000+0 -40188-5 0  9998
2 22220  70.9992 275.9344 0012270 168.7253 303.2529 14.16850319715942
COSMOS 2221             
1 22236U 92080A   26027.50521598  .00003572  00000+0  31564-3 0  9994
2 22236  82.5063 318.5179 0013869 338.1625  21.9004 14.96015542774630
SL-16 R/B               
1 22285U 92093B   26027.46805749 -.00000045  00000+0  14973-5 0  9990
2 22285  71.0219  90.8049 0004650 337.8761  22.2161 14.15443700707323
COSMOS 2228             
1 22286U 92094A   26027.48161781  .00003449  00000+0  29646-3 0  9996
2 22286  82.5175 276.7668 0019621  80.9986 279.3456 14.96993007769894
