CCSDS_OMM_VERS = 2.0
CREATION_DATE  = 
ORIGINATOR     = 

OBJECT_NAME    = SL-14 R/B
OBJECT_ID      = 1991-042B
CENTER_NAME    = EARTH
REF_FRAME      = TEME
TIME_SYSTEM    = UTC
MEAN_ELEMENT_THEORY = SGP/SGP4

EPOCH          = 2026-01-27T08:44:02.789952
MEAN_MOTION    = 14.81789744
ECCENTRICITY   = .0017625
INCLINATION    = 82.4910
RA_OF_ASC_NODE = 258.9439
ARG_OF_PERICENTER = 21.7696
MEAN_ANOMALY   = 338.4263

EPHEMERIS_TYPE = 0
CLASSIFICATION_TYPE = U
NORAD_CAT_ID   = 21423
ELEMENT_SET_NO = 999
REV_AT_EPOCH   = 84695
BSTAR          = .78056E-4
MEAN_MOTION_DOT = .641E-5
MEAN_MOTION_DDOT = 0

CCSDS_OMM_VERS = 2.0
CREATION_DATE  = 
ORIGINATOR     = 

OBJECT_NAME    = ERS-1
OBJECT_ID      = 1991-050A
CENTER_NAME    = EARTH
REF_FRAME      = TEME
TIME_SYSTEM    = UTC
MEAN_ELEMENT_THEORY = SGP/SGP4

EPOCH          = 2026-01-27T11:26:45.209760
MEAN_MOTION    = 14.39412187
ECCENTRICITY   = .0031376
INCLINATION    = 98.7898
RA_OF_ASC_NODE = 44.6756
ARG_OF_PERICENTER = 326.2226
MEAN_ANOMALY   = 33.6961

EPHEMERIS_TYPE = 0
CLASSIFICATION_TYPE = U
NORAD_CAT_ID   = 21574
ELEMENT_SET_NO = 999
REV_AT_EPOCH   = 80980
BSTAR          = .21624E-3
MEAN_MOTION_DOT = .63E-5
MEAN_MOTION_DDOT = 0

CCSDS_OMM_VERS = 2.0
CREATION_DATE  = 
ORIGINATOR     = 

OBJECT_NAME    = ARIANE 40 R/B
OBJECT_ID      = 1991-050F
CENTER_NAME    = EARTH
REF_FRAME      = TEME
TIME_SYSTEM    = UTC
MEAN_ELEMENT_THEORY = SGP/SGP4

EPOCH          = 2026-01-27T03:22:09.785856
MEAN_MOTION    = 14.42859996
ECCENTRICITY   = .0003062
INCLINATION    = 98.2098
RA_OF_ASC_NODE = 80.9188
ARG_OF_PERICENTER = 177.8300
MEAN_ANOMALY   = 182.2905

EPHEMERIS_TYPE = 0
CLASSIFICATION_TYPE = U
NORAD_CAT_ID   = 21610
ELEMENT_SET_NO = 999
REV_AT_EPOCH   = 81300
BSTAR          = .17953013E-3
MEAN_MOTION_DOT = .558E-5
MEAN_MOTION_DDOT = 0

CCSDS_OMM_VERS = 2.0
CREATION_DATE  = 
ORIGINATOR     = 

OBJECT_NAME    = INTERCOSMOS 25
OBJECT_ID      = 1991-086A
CENTER_NAME    = EARTH
REF_FRAME      = TEME
TIME_SYSTEM    = UTC
MEAN_ELEMENT_THEORY = SGP/SGP4

EPOCH          = 2026-01-27T07:02:04.174368
MEAN_MOTION    = 12.11886671
ECCENTRICITY   = .1486237
INCLINATION    = 82.6091
RA_OF_ASC_NODE = 335.0242
ARG_OF_PERICENTER = 206.1378
MEAN_ANOMALY   = 145.6714

EPHEMERIS_TYPE = 0
CLASSIFICATION_TYPE = U
NORAD_CAT_ID   = 21819
ELEMENT_SET_NO = 999
REV_AT_EPOCH   = 49167
BSTAR          = .42403E-3
MEAN_MOTION_DOT = .2151E-4
MEAN_MOTION_DDOT = 0

CCSDS_OMM_VERS = 2.0
CREATION_DATE  = 
ORIGINATOR     = 

OBJECT_NAME    = SL-8 R/B
OBJECT_ID      = 1992-008B
CENTER_NAME    = EARTH
REF_FRAME      = TEME
TIME_SYSTEM    = UTC
MEAN_ELEMENT_THEORY = SGP/SGP4

EPOCH          = 2026-01-27T06:49:30.653184
MEAN_MOTION    = 13.75968534
ECCENTRICITY   = .0033367
INCLINATION    = 82.9283
RA_OF_ASC_NODE = 298.5770
ARG_OF_PERICENTER = 249.8779
MEAN_ANOMALY   = 227.1003

EPHEMERIS_TYPE = 0
CLASSIFICATION_TYPE = U
NORAD_CAT_ID   = 21876
ELEMENT_SET_NO = 999
REV_AT_EPOCH   = 70372
BSTAR          = .77688E-4
MEAN_MOTION_DOT = .9E-6
MEAN_MOTION_DDOT = 0

CCSDS_OMM_VERS = 2.0
CREATION_DATE  = 
ORIGINATOR     = 

OBJECT_NAME    = SL-8 R/B
OBJECT_ID      = 1992-020B
CENTER_NAME    = EARTH
REF_FRAME      = TEME
TIME_SYSTEM    = UTC
MEAN_ELEMENT_THEORY = SGP/SGP4

EPOCH          = 2026-01-27T12:32:15.225216
MEAN_MOTION    = 13.75542334
ECCENTRICITY   = .0029961
INCLINATION    = 82.9310
RA_OF_ASC_NODE = 184.3193
ARG_OF_PERICENTER = 54.3870
MEAN_ANOMALY   = 10.0651

EPHEMERIS_TYPE = 0
CLASSIFICATION_TYPE = U
NORAD_CAT_ID   = 21938
ELEMENT_SET_NO = 999
REV_AT_EPOCH   = 69547
BSTAR          = .19212E-3
MEAN_MOTION_DOT = .201E-5
MEAN_MOTION_DDOT = 0

CCSDS_OMM_VERS = 2.0
CREATION_DATE  = 
ORIGINATOR     = 

OBJECT_NAME    = USA 81
OBJECT_ID      = 1992-023A
CENTER_NAME    = EARTH
REF_FRAME      = TEME
TIME_SYSTEM    = UTC
MEAN_ELEMENT_THEORY = SGP/SGP4

EPOCH          = 2026-01-27T10:37:13.597536
MEAN_MOTION    = 14.32350803
ECCENTRICITY   = .0002246
INCLINATION    = 85.0115
RA_OF_ASC_NODE = 155.2222
ARG_OF_PERICENTER = 112.7449
MEAN_ANOMALY   = 247.3981

EPHEMERIS_TYPE = 0
CLASSIFICATION_TYPE = U
NORAD_CAT_ID   = 21949
ELEMENT_SET_NO = 999
REV_AT_EPOCH   = 8888
BSTAR          = .13575E-3
MEAN_MOTION_DOT = .386E-5
MEAN_MOTION_DDOT = 0

CCSDS_OMM_VERS = 2.0
CREATION_DATE  = 
ORIGINATOR     = 

OBJECT_NAME    = COSMOS 2219
OBJECT_ID      = 1992-076A
CENTER_NAME    = EARTH
REF_FRAME      = TEME
TIME_SYSTEM    = UTC
MEAN_ELEMENT_THEORY = SGP/SGP4

EPOCH          = 2026-01-27T11:49:24.139200
MEAN_MOTION    = 14.14080268
ECCENTRICITY   = .0020772
INCLINATION    = 71.0608
RA_OF_ASC_NODE = 104.1944
ARG_OF_PERICENTER = 264.2500
MEAN_ANOMALY   = 95.6254

EPHEMERIS_TYPE = 0
CLASSIFICATION_TYPE = U
NORAD_CAT_ID   = 22219
ELEMENT_SET_NO = 999
REV_AT_EPOCH   = 71255
BSTAR          = -.81895E-4
MEAN_MOTION_DOT = -.203E-5
MEAN_MOTION_DDOT = 0

CCSDS_OMM_VERS = 2.0
CREATION_DATE  = 
ORIGINATOR     = 

OBJECT_NAME    = SL-16 R/B
OBJECT_ID      = 1992-076B
CENTER_NAME    = EARTH
REF_FRAME      = TEME
TIME_SYSTEM    = UTC
MEAN_ELEMENT_THEORY = SGP/SGP4

EPOCH          = 2026-01-27T02:57:24.181056
MEAN_MOTION    = 14.16850319
ECCENTRICITY   = .00122706
INCLINATION    = 70.9992
RA_OF_ASC_NODE = 275.9344
ARG_OF_PERICENTER = 168.7253
MEAN_ANOMALY   = 303.2529

EPHEMERIS_TYPE = 0
CLASSIFICATION_TYPE = U
NORAD_CAT_ID   = 22220
ELEMENT_SET_NO = 999
REV_AT_EPOCH   = 71594
BSTAR          = -.40188E-5
MEAN_MOTION_DOT = -.56E-6
MEAN_MOTION_DDOT = 0

CCSDS_OMM_VERS = 2.0
CREATION_DATE  = 
ORIGINATOR     = 

OBJECT_NAME    = COSMOS 2221
OBJECT_ID      = 1992-080A
CENTER_NAME    = EARTH
REF_FRAME      = TEME
TIME_SYSTEM    = UTC
MEAN_ELEMENT_THEORY = SGP/SGP4

EPOCH          = 2026-01-27T12:07:30.660672
MEAN_MOTION    = 14.96015542
ECCENTRICITY   = .0013869
INCLINATION    = 82.5063
RA_OF_ASC_NODE = 318.5179
ARG_OF_PERICENTER = 338.1625
MEAN_ANOMALY   = 21.9004

EPHEMERIS_TYPE = 0
CLASSIFICATION_TYPE = U
NORAD_CAT_ID   = 22236
ELEMENT_SET_NO = 999
REV_AT_EPOCH   = 77463
BSTAR          = .31564E-3
MEAN_MOTION_DOT = .3572E-4
MEAN_MOTION_DDOT = 0

CCSDS_OMM_VERS = 2.0
CREATION_DATE  = 
ORIGINATOR     = 

OBJECT_NAME    = SL-16 R/B
OBJECT_ID      = 1992-093B
CENTER_NAME    = EARTH
REF_FRAME      = TEME
TIME_SYSTEM    = UTC
MEAN_ELEMENT_THEORY = SGP/SGP4

EPOCH          = 2026-01-27T11:14:00.167136
MEAN_MOTION    = 14.15443700
ECCENTRICITY   = .000465
INCLINATION    = 71.0219
RA_OF_ASC_NODE = 90.8049
ARG_OF_PERICENTER = 337.8761
MEAN_ANOMALY   = 22.2161

EPHEMERIS_TYPE = 0
CLASSIFICATION_TYPE = U
NORAD_CAT_ID   = 22285
ELEMENT_SET_NO = 999
REV_AT_EPOCH   = 70732
BSTAR          = .14973E-5
MEAN_MOTION_DOT = -.45E-6
MEAN_MOTION_DDOT = 0

CCSDS_OMM_VERS = 2.0
CREATION_DATE  = 
ORIGINATOR     = 

OBJECT_NAME    = COSMOS 2228
OBJECT_ID      = 1992-094A
CENTER_NAME    = EARTH
REF_FRAME      = TEME
TIME_SYSTEM    = UTC
MEAN_ELEMENT_THEORY = SGP/SGP4

EPOCH          = 2026-01-27T11:33:31.778784
MEAN_MOTION    = 14.96993007
ECCENTRICITY   = .0019621
INCLINATION    = 82.5175
RA_OF_ASC_NODE = 276.7668
ARG_OF_PERICENTER = 80.9986
MEAN_ANOMALY   = 279.3456

EPHEMERIS_TYPE = 0
CLASSIFICATION_TYPE = U
NORAD_CAT_ID   = 22286
ELEMENT_SET_NO = 999
REV_AT_EPOCH   = 76989
BSTAR          = .29646E-3
MEAN_MOTION_DOT = .3449E-4
MEAN_MOTION_DDOT = 0

